{
 "type": "FeatureCollection",
 "features": [
  {
   "type": "Feature",
   "id": "1",
   "geometry": {
    "type": "Polygon",
    "coordinates": [
     [
      [
       89,
       94
      ],
      [
       85,
       96
      ],
      [
       69,
       96
      ],
      [
       59,
       80
      ],
      [
       56,
       78
      ],
      [
       60,
       63
      ],
      [
       73,
       49
      ],
      [
       79,
       50
      ],
      [
       91,
       56
      ],
      [
       95,
       60
      ],
      [
       89,
       94
      ]
     ]
    ]
   },
   "properties": {
    "objectType": "cell"
   }
  },
  {
   "type": "Feature",
   "id": "2",
   "geometry": {
    "type": "Polygon",
    "coordinates": [
     [
      [
       171,
       69
      ],
      [
       162,
       88
      ],
      [
       136,
       86
      ],
      [
       121,
       69
      ],
      [
       128,
       54
      ],
      [
       129,
       53
      ],
      [
       131,
       54
      ],
      [
       154,
       43
      ],
      [
       172,
       55
      ],
      [
       173,
       60
      ],
      [
       171,
       69
      ]
     ]
    ]
   },
   "properties": {
    "objectType": "cell"
   }
  },
  {
   "type": "Feature",
   "id": "3",
   "geometry": {
    "type": "Polygon",
    "coordinates": [
     [
      [
       237,
       89
      ],
      [
       236,
       88
      ],
      [
       236,
       93
      ],
      [
       221,
       96
      ],
      [
       204,
       71
      ],
      [
       213,
       61
      ],
      [
       216,
       63
      ],
      [
       221,
       57
      ],
      [
       226,
       61
      ],
      [
       233,
       61
      ],
      [
       238,
       68
      ],
      [
       243,
       67
      ],
      [
       237,
       89
      ]
     ]
    ]
   },
   "properties": {
    "objectType": "cell"
   }
  },
  {
   "type": "Feature",
   "id": "4",
   "geometry": {
    "type": "Polygon",
    "coordinates": [
     [
      [
       317,
       78
      ],
      [
       305,
       93
      ],
      [
       282,
       92
      ],
      [
       273,
       79
      ],
      [
       265,
       68
      ],
      [
       292,
       49
      ],
      [
       314,
       53
      ],
      [
       309,
       57
      ],
      [
       308,
       58
      ],
      [
       319,
       70
      ],
      [
       317,
       78
      ]
     ]
    ]
   },
   "properties": {
    "objectType": "cell"
   }
  },
  {
   "type": "Feature",
   "id": "5",
   "geometry": {
    "type": "Polygon",
    "coordinates": [
     [
      [
       391,
       81
      ],
      [
       385,
       94
      ],
      [
       384,
       96
      ],
      [
       379,
       93
      ],
      [
       376,
       95
      ],
      [
       376,
       102
      ],
      [
       375,
       98
      ],
      [
       371,
       98
      ],
      [
       361,
       98
      ],
      [
       346,
       79
      ],
      [
       344,
       78
      ],
      [
       351,
       69
      ],
      [
       349,
       65
      ],
      [
       361,
       63
      ],
      [
       361,
       59
      ],
      [
       372,
       57
      ],
      [
       381,
       66
      ],
      [
       386,
       76
      ],
      [
       391,
       81
      ]
     ]
    ]
   },
   "properties": {
    "objectType": "cell"
   }
  },
  {
   "type": "Feature",
   "id": "6",
   "geometry": {
    "type": "Polygon",
    "coordinates": [
     [
      [
       451,
       76
      ],
      [
       448,
       86
      ],
      [
       417,
       83
      ],
      [
       414,
       78
      ],
      [
       418,
       63
      ],
      [
       438,
       57
      ],
      [
       439,
       57
      ],
      [
       440,
       57
      ],
      [
       443,
       57
      ],
      [
       453,
       66
      ],
      [
       452,
       70
      ],
      [
       451,
       76
      ]
     ]
    ]
   },
   "properties": {
    "objectType": "cell"
   }
  },
  {
   "type": "Feature",
   "id": "7",
   "geometry": {
    "type": "Polygon",
    "coordinates": [
     [
      [
       96,
       156
      ],
      [
       94,
       161
      ],
      [
       94,
       162
      ],
      [
       91,
       164
      ],
      [
       93,
       168
      ],
      [
       93,
       169
      ],
      [
       90,
       168
      ],
      [
       81,
       170
      ],
      [
       74,
       171
      ],
      [
       69,
       173
      ],
      [
       57,
       134
      ],
      [
       78,
       129
      ],
      [
       87,
       130
      ],
      [
       88,
       130
      ],
      [
       97,
       139
      ],
      [
       96,
       156
      ]
     ]
    ]
   },
   "properties": {
    "objectType": "cell"
   }
  },
  {
   "type": "Feature",
   "id": "8",
   "geometry": {
    "type": "Polygon",
    "coordinates": [
     [
      [
       171,
       163
      ],
      [
       169,
       163
      ],
      [
       165,
       170
      ],
      [
       164,
       170
      ],
      [
       125,
       173
      ],
      [
       126,
       165
      ],
      [
       120,
       151
      ],
      [
       122,
       144
      ],
      [
       157,
       131
      ],
      [
       157,
       135
      ],
      [
       163,
       141
      ],
      [
       166,
       143
      ],
      [
       171,
       163
      ]
     ]
    ]
   },
   "properties": {
    "objectType": "cell"
   }
  },
  {
   "type": "Feature",
   "id": "9",
   "geometry": {
    "type": "Polygon",
    "coordinates": [
     [
      [
       238,
       157
      ],
      [
       226,
       161
      ],
      [
       218,
       161
      ],
      [
       213,
       162
      ],
      [
       209,
       158
      ],
      [
       209,
       158
      ],
      [
       209,
       156
      ],
      [
       205,
       152
      ],
      [
       205,
       144
      ],
      [
       215,
       120
      ],
      [
       241,
       131
      ],
      [
       246,
       134
      ],
      [
       238,
       157
      ]
     ]
    ]
   },
   "properties": {
    "objectType": "cell"
   }
  },
  {
   "type": "Feature",
   "id": "10",
   "geometry": {
    "type": "Polygon",
    "coordinates": [
     [
      [
       306,
       153
      ],
      [
       306,
       155
      ],
      [
       298,
       155
      ],
      [
       300,
       158
      ],
      [
       268,
       129
      ],
      [
       267,
       125
      ],
      [
       282,
       120
      ],
      [
       289,
       118
      ],
      [
       292,
       118
      ],
      [
       299,
       123
      ],
      [
       306,
       131
      ],
      [
       309,
       134
      ],
      [
       306,
       153
      ]
     ]
    ]
   },
   "properties": {
    "objectType": "cell"
   }
  },
  {
   "type": "Feature",
   "id": "11",
   "geometry": {
    "type": "Polygon",
    "coordinates": [
     [
      [
       387,
       165
      ],
      [
       384,
       167
      ],
      [
       386,
       169
      ],
      [
       382,
       171
      ],
      [
       383,
       174
      ],
      [
       367,
       177
      ],
      [
       362,
       173
      ],
      [
       360,
       171
      ],
      [
       354,
       172
      ],
      [
       351,
       165
      ],
      [
       347,
       156
      ],
      [
       356,
       144
      ],
      [
       358,
       135
      ],
      [
       360,
       136
      ],
      [
       371,
       137
      ],
      [
       373,
       134
      ],
      [
       387,
       142
      ],
      [
       385,
       148
      ],
      [
       388,
       147
      ],
      [
       387,
       165
      ]
     ]
    ]
   },
   "properties": {
    "objectType": "cell"
   }
  },
  {
   "type": "Feature",
   "id": "12",
   "geometry": {
    "type": "Polygon",
    "coordinates": [
     [
      [
       455,
       158
      ],
      [
       449,
       156
      ],
      [
       450,
       157
      ],
      [
       433,
       162
      ],
      [
       431,
       166
      ],
      [
       431,
       162
      ],
      [
       416,
       154
      ],
      [
       417,
       151
      ],
      [
       427,
       133
      ],
      [
       429,
       132
      ],
      [
       440,
       130
      ],
      [
       446,
       128
      ],
      [
       448,
       128
      ],
      [
       449,
       134
      ],
      [
       455,
       135
      ],
      [
       453,
       145
      ],
      [
       458,
       146
      ],
      [
       455,
       158
      ]
     ]
    ]
   },
   "properties": {
    "objectType": "cell"
   }
  },
  {
   "type": "Feature",
   "id": "13",
   "geometry": {
    "type": "Polygon",
    "coordinates": [
     [
      [
       82,
       223
      ],
      [
       88,
       226
      ],
      [
       81,
       234
      ],
      [
       76,
       233
      ],
      [
       72,
       235
      ],
      [
       72,
       235
      ],
      [
       64,
       242
      ],
      [
       47,
       218
      ],
      [
       50,
       205
      ],
      [
       51,
       205
      ],
      [
       53,
       204
      ],
      [
       61,
       203
      ],
      [
       61,
       197
      ],
      [
       65,
       201
      ],
      [
       66,
       199
      ],
      [
       70,
       198
      ],
      [
       77,
       202
      ],
      [
       80,
       201
      ],
      [
       84,
       217
      ],
      [
       82,
       223
      ]
     ]
    ]
   },
   "properties": {
    "objectType": "cell"
   }
  },
  {
   "type": "Feature",
   "id": "14",
   "geometry": {
    "type": "Polygon",
    "coordinates": [
     [
      [
       173,
       224
      ],
      [
       167,
       235
      ],
      [
       166,
       237
      ],
      [
       154,
       243
      ],
      [
       153,
       243
      ],
      [
       145,
       240
      ],
      [
       140,
       243
      ],
      [
       139,
       240
      ],
      [
       130,
       231
      ],
      [
       128,
       232
      ],
      [
       130,
       230
      ],
      [
       129,
       230
      ],
      [
       126,
       230
      ],
      [
       123,
       223
      ],
      [
       122,
       223
      ],
      [
       126,
       217
      ],
      [
       129,
       206
      ],
      [
       129,
       201
      ],
      [
       135,
       202
      ],
      [
       173,
       224
      ]
     ]
    ]
   },
   "properties": {
    "objectType": "cell"
   }
  },
  {
   "type": "Feature",
   "id": "15",
   "geometry": {
    "type": "Polygon",
    "coordinates": [
     [
      [
       247,
       218
      ],
      [
       242,
       223
      ],
      [
       243,
       226
      ],
      [
       244,
       235
      ],
      [
       239,
       239
      ],
      [
       235,
       239
      ],
      [
       219,
       238
      ],
      [
       213,
       239
      ],
      [
       210,
       238
      ],
      [
       207,
       232
      ],
      [
       198,
       217
      ],
      [
       222,
       197
      ],
      [
       233,
       197
      ],
      [
       236,
       196
      ],
      [
       236,
       200
      ],
      [
       247,
       218
      ]
     ]
    ]
   },
   "properties": {
    "objectType": "cell"
   }
  },
  {
   "type": "Feature",
   "id": "16",
   "geometry": {
    "type": "Polygon",
    "coordinates": [
     [
      [
       316,
       223
      ],
      [
       315,
       227
      ],
      [
       311,
       233
      ],
      [
       310,
       234
      ],
      [
       306,
       232
      ],
      [
       306,
       234
      ],
      [
       300,
       240
      ],
      [
       282,
       231
      ],
      [
       279,
       226
      ],
      [
       278,
       224
      ],
      [
       277,
       222
      ],
      [
       282,
       212
      ],
      [
       299,
       199
      ],
      [
       308,
       200
      ],
      [
       308,
       202
      ],
      [
       317,
       205
      ],
      [
       318,
       216
      ],
      [
       320,
       216
      ],
      [
       316,
       223
      ]
     ]
    ]
   },
   "properties": {
    "objectType": "cell"
   }
  },
  {
   "type": "Feature",
   "id": "17",
   "geometry": {
    "type": "Polygon",
    "coordinates": [
     [
      [
       388,
       216
      ],
      [
       383,
       224
      ],
      [
       378,
       231
      ],
      [
       375,
       228
      ],
      [
       360,
       228
      ],
      [
       358,
       231
      ],
      [
       353,
       225
      ],
      [
       346,
       213
      ],
      [
       349,
       212
      ],
      [
       350,
       209
      ],
      [
       351,
       202
      ],
      [
       354,
       197
      ],
      [
       381,
       196
      ],
      [
       388,
       201
      ],
      [
       387,
       203
      ],
      [
       389,
       203
      ],
      [
       388,
       216
      ]
     ]
    ]
   },
   "properties": {
    "objectType": "cell"
   }
  },
  {
   "type": "Feature",
   "id": "18",
   "geometry": {
    "type": "Polygon",
    "coordinates": [
     [
      [
       451,
       230
      ],
      [
       449,
       241
      ],
      [
       444,
       238
      ],
      [
       425,
       247
      ],
      [
       416,
       245
      ],
      [
       406,
       234
      ],
      [
       406,
       230
      ],
      [
       411,
       226
      ],
      [
       410,
       217
      ],
      [
       420,
       209
      ],
      [
       428,
       205
      ],
      [
       428,
       201
      ],
      [
       430,
       200
      ],
      [
       434,
       200
      ],
      [
       455,
       220
      ],
      [
       454,
       221
      ],
      [
       455,
       222
      ],
      [
       449,
       223
      ],
      [
       451,
       230
      ]
     ]
    ]
   },
   "properties": {
    "objectType": "cell"
   }
  },
  {
   "type": "Feature",
   "id": "19",
   "geometry": {
    "type": "Polygon",
    "coordinates": [
     [
      [
       95,
       298
      ],
      [
       96,
       301
      ],
      [
       85,
       319
      ],
      [
       79,
       321
      ],
      [
       73,
       322
      ],
      [
       71,
       316
      ],
      [
       65,
       314
      ],
      [
       62,
       309
      ],
      [
       59,
       310
      ],
      [
       52,
       295
      ],
      [
       58,
       285
      ],
      [
       61,
       282
      ],
      [
       67,
       280
      ],
      [
       66,
       276
      ],
      [
       89,
       281
      ],
      [
       88,
       283
      ],
      [
       89,
       282
      ],
      [
       90,
       286
      ],
      [
       92,
       286
      ],
      [
       95,
       298
      ]
     ]
    ]
   },
   "properties": {
    "objectType": "cell"
   }
  },
  {
   "type": "Feature",
   "id": "20",
   "geometry": {
    "type": "Polygon",
    "coordinates": [
     [
      [
       169,
       289
      ],
      [
       149,
       305
      ],
      [
       143,
       306
      ],
      [
       139,
       303
      ],
      [
       137,
       303
      ],
      [
       132,
       295
      ],
      [
       131,
       291
      ],
      [
       131,
       282
      ],
      [
       137,
       274
      ],
      [
       148,
       265
      ],
      [
       161,
       276
      ],
      [
       166,
       281
      ],
      [
       169,
       289
      ]
     ]
    ]
   },
   "properties": {
    "objectType": "cell"
   }
  },
  {
   "type": "Feature",
   "id": "21",
   "geometry": {
    "type": "Polygon",
    "coordinates": [
     [
      [
       243,
       307
      ],
      [
       231,
       312
      ],
      [
       203,
       300
      ],
      [
       204,
       295
      ],
      [
       199,
       282
      ],
      [
       212,
       277
      ],
      [
       214,
       276
      ],
      [
       227,
       273
      ],
      [
       227,
       274
      ],
      [
       231,
       272
      ],
      [
       240,
       279
      ],
      [
       243,
       291
      ],
      [
       243,
       307
      ]
     ]
    ]
   },
   "properties": {
    "objectType": "cell"
   }
  },
  {
   "type": "Feature",
   "id": "22",
   "geometry": {
    "type": "Polygon",
    "coordinates": [
     [
      [
       321,
       295
      ],
      [
       322,
       295
      ],
      [
       316,
       301
      ],
      [
       316,
       302
      ],
      [
       312,
       308
      ],
      [
       314,
       309
      ],
      [
       303,
       317
      ],
      [
       291,
       314
      ],
      [
       287,
       313
      ],
      [
       278,
       312
      ],
      [
       283,
       306
      ],
      [
       279,
       306
      ],
      [
       276,
       305
      ],
      [
       278,
       296
      ],
      [
       279,
       294
      ],
      [
       291,
       277
      ],
      [
       314,
       276
      ],
      [
       321,
       295
      ]
     ]
    ]
   },
   "properties": {
    "objectType": "cell"
   }
  },
  {
   "type": "Feature",
   "id": "23",
   "geometry": {
    "type": "Polygon",
    "coordinates": [
     [
      [
       386,
       290
      ],
      [
       382,
       292
      ],
      [
       382,
       302
      ],
      [
       374,
       308
      ],
      [
       368,
       306
      ],
      [
       348,
       280
      ],
      [
       352,
       280
      ],
      [
       353,
       276
      ],
      [
       379,
       272
      ],
      [
       377,
       275
      ],
      [
       386,
       290
      ]
     ]
    ]
   },
   "properties": {
    "objectType": "cell"
   }
  },
  {
   "type": "Feature",
   "id": "24",
   "geometry": {
    "type": "Polygon",
    "coordinates": [
     [
      [
       455,
       291
      ],
      [
       454,
       296
      ],
      [
       442,
       309
      ],
      [
       429,
       308
      ],
      [
       428,
       308
      ],
      [
       427,
       303
      ],
      [
       417,
       300
      ],
      [
       420,
       275
      ],
      [
       443,
       270
      ],
      [
       445,
       271
      ],
      [
       455,
       291
      ]
     ]
    ]
   },
   "properties": {
    "objectType": "cell"
   }
  },
  {
   "type": "Feature",
   "id": "25",
   "geometry": {
    "type": "Polygon",
    "coordinates": [
     [
      [
       99,
       362
      ],
      [
       100,
       363
      ],
      [
       94,
       366
      ],
      [
       93,
       375
      ],
      [
       87,
       376
      ],
      [
       76,
       382
      ],
      [
       75,
       377
      ],
      [
       60,
       360
      ],
      [
       61,
       357
      ],
      [
       64,
       352
      ],
      [
       63,
       350
      ],
      [
       65,
       347
      ],
      [
       93,
       348
      ],
      [
       95,
       349
      ],
      [
       101,
       360
      ],
      [
       97,
       360
      ],
      [
       99,
       362
      ]
     ]
    ]
   },
   "properties": {
    "objectType": "cell"
   }
  },
  {
   "type": "Feature",
   "id": "26",
   "geometry": {
    "type": "Polygon",
    "coordinates": [
     [
      [
       165,
       364
      ],
      [
       163,
       376
      ],
      [
       158,
       383
      ],
      [
       152,
       381
      ],
      [
       150,
       384
      ],
      [
       148,
       386
      ],
      [
       123,
       377
      ],
      [
       122,
       376
      ],
      [
       119,
       360
      ],
      [
       123,
       360
      ],
      [
       132,
       339
      ],
      [
       150,
       338
      ],
      [
       158,
       343
      ],
      [
       157,
       350
      ],
      [
       160,
       352
      ],
      [
       166,
       356
      ],
      [
       165,
       364
      ]
     ]
    ]
   },
   "properties": {
    "objectType": "cell"
   }
  },
  {
   "type": "Feature",
   "id": "27",
   "geometry": {
    "type": "Polygon",
    "coordinates": [
     [
      [
       228,
       391
      ],
      [
       212,
       388
      ],
      [
       206,
       385
      ],
      [
       203,
       387
      ],
      [
       204,
       384
      ],
      [
       198,
       385
      ],
      [
       200,
       375
      ],
      [
       204,
       361
      ],
      [
       201,
       356
      ],
      [
       201,
       355
      ],
      [
       216,
       350
      ],
      [
       236,
       358
      ],
      [
       239,
       363
      ],
      [
       243,
       368
      ],
      [
       228,
       391
      ]
     ]
    ]
   },
   "properties": {
    "objectType": "cell"
   }
  },
  {
   "type": "Feature",
   "id": "28",
   "geometry": {
    "type": "Polygon",
    "coordinates": [
     [
      [
       311,
       377
      ],
      [
       308,
       385
      ],
      [
       291,
       393
      ],
      [
       290,
       394
      ],
      [
       285,
       393
      ],
      [
       269,
       376
      ],
      [
       275,
       373
      ],
      [
       274,
       372
      ],
      [
       281,
       357
      ],
      [
       310,
       366
      ],
      [
       311,
       377
      ]
     ]
    ]
   },
   "properties": {
    "objectType": "cell"
   }
  },
  {
   "type": "Feature",
   "id": "29",
   "geometry": {
    "type": "Polygon",
    "coordinates": [
     [
      [
       368,
       376
      ],
      [
       371,
       381
      ],
      [
       357,
       378
      ],
      [
       350,
       384
      ],
      [
       344,
       373
      ],
      [
       340,
       370
      ],
      [
       332,
       352
      ],
      [
       340,
       348
      ],
      [
       341,
       344
      ],
      [
       355,
       336
      ],
      [
       359,
       338
      ],
      [
       361,
       334
      ],
      [
       372,
       337
      ],
      [
       373,
       338
      ],
      [
       368,
       376
      ]
     ]
    ]
   },
   "properties": {
    "objectType": "cell"
   }
  },
  {
   "type": "Feature",
   "id": "30",
   "geometry": {
    "type": "Polygon",
    "coordinates": [
     [
      [
       450,
       378
      ],
      [
       439,
       381
      ],
      [
       438,
       381
      ],
      [
       428,
       375
      ],
      [
       420,
       361
      ],
      [
       413,
       357
      ],
      [
       417,
       356
      ],
      [
       442,
       335
      ],
      [
       453,
       348
      ],
      [
       458,
       352
      ],
      [
       450,
       378
      ]
     ]
    ]
   },
   "properties": {
    "objectType": "cell"
   }
  },
  {
   "type": "Feature",
   "id": "31",
   "geometry": {
    "type": "Polygon",
    "coordinates": [
     [
      [
       90,
       447
      ],
      [
       88,
       449
      ],
      [
       84,
       458
      ],
      [
       80,
       461
      ],
      [
       74,
       460
      ],
      [
       67,
       467
      ],
      [
       58,
       461
      ],
      [
       55,
       461
      ],
      [
       58,
       457
      ],
      [
       47,
       457
      ],
      [
       48,
       447
      ],
      [
       50,
       446
      ],
      [
       47,
       438
      ],
      [
       53,
       431
      ],
      [
       66,
       424
      ],
      [
       76,
       422
      ],
      [
       85,
       432
      ],
      [
       88,
       431
      ],
      [
       87,
       441
      ],
      [
       90,
       447
      ]
     ]
    ]
   },
   "properties": {
    "objectType": "cell"
   }
  },
  {
   "type": "Feature",
   "id": "32",
   "geometry": {
    "type": "Polygon",
    "coordinates": [
     [
      [
       169,
       442
      ],
      [
       155,
       457
      ],
      [
       130,
       457
      ],
      [
       123,
       442
      ],
      [
       121,
       441
      ],
      [
       124,
       439
      ],
      [
       123,
       420
      ],
      [
       133,
       417
      ],
      [
       134,
       414
      ],
      [
       141,
       414
      ],
      [
       157,
       417
      ],
      [
       167,
       428
      ],
      [
       169,
       442
      ]
     ]
    ]
   },
   "properties": {
    "objectType": "cell"
   }
  },
  {
   "type": "Feature",
   "id": "33",
   "geometry": {
    "type": "Polygon",
    "coordinates": [
     [
      [
       238,
       434
      ],
      [
       231,
       441
      ],
      [
       231,
       446
      ],
      [
       222,
       447
      ],
      [
       209,
       447
      ],
      [
       208,
       445
      ],
      [
       203,
       441
      ],
      [
       200,
       441
      ],
      [
       197,
       440
      ],
      [
       207,
       418
      ],
      [
       206,
       416
      ],
      [
       207,
       414
      ],
      [
       206,
       413
      ],
      [
       220,
       412
      ],
      [
       231,
       422
      ],
      [
       238,
       434
      ]
     ]
    ]
   },
   "properties": {
    "objectType": "cell"
   }
  },
  {
   "type": "Feature",
   "id": "34",
   "geometry": {
    "type": "Polygon",
    "coordinates": [
     [
      [
       324,
       449
      ],
      [
       292,
       465
      ],
      [
       292,
       465
      ],
      [
       280,
       461
      ],
      [
       279,
       461
      ],
      [
       277,
       455
      ],
      [
       274,
       448
      ],
      [
       277,
       439
      ],
      [
       281,
       430
      ],
      [
       283,
       428
      ],
      [
       292,
       425
      ],
      [
       314,
       428
      ],
      [
       315,
       431
      ],
      [
       323,
       437
      ],
      [
       321,
       443
      ],
      [
       324,
       449
      ]
     ]
    ]
   },
   "properties": {
    "objectType": "cell"
   }
  },
  {
   "type": "Feature",
   "id": "35",
   "geometry": {
    "type": "Polygon",
    "coordinates": [
     [
      [
       384,
       448
      ],
      [
       382,
       465
      ],
      [
       375,
       463
      ],
      [
       372,
       465
      ],
      [
       366,
       469
      ],
      [
       349,
       468
      ],
      [
       339,
       462
      ],
      [
       338,
       433
      ],
      [
       365,
       428
      ],
      [
       368,
       428
      ],
      [
       372,
       424
      ],
      [
       373,
       429
      ],
      [
       379,
       427
      ],
      [
       384,
       448
      ]
     ]
    ]
   },
   "properties": {
    "objectType": "cell"
   }
  },
  {
   "type": "Feature",
   "id": "36",
   "geometry": {
    "type": "Polygon",
    "coordinates": [
     [
      [
       456,
       449
      ],
      [
       452,
       457
      ],
      [
       422,
       449
      ],
      [
       424,
       438
      ],
      [
       423,
       436
      ],
      [
       424,
       432
      ],
      [
       433,
       424
      ],
      [
       432,
       420
      ],
      [
       435,
       421
      ],
      [
       453,
       419
      ],
      [
       465,
       437
      ],
      [
       465,
       438
      ],
      [
       456,
       449
      ]
     ]
    ]
   },
   "properties": {
    "objectType": "cell"
   }
  }
 ]
}